DUBAISAT-1              
1 35682U 09041B   26159.13520992  .00000855  00000+0  13413-3 0  9994
2 35682  98.0042 292.4931 0011742  99.3668 260.8869 14.75109815903760
OCEANSAT-2              
1 35931U 09051A   26159.26382595  .00000108  00000+0  99714-4 0  9991
2 35931  98.2330 147.0054 0014635 263.3655  96.5846 13.99664011878087
WORLDVIEW-2 (WV-2)      
1 35946U 09055A   26159.25677550  .00000117  00000+0  53051-4 0  9992
2 35946  98.4736 232.8293 0003261 240.7189 119.3673 14.37896848874364
SMOS                    
1 36036U 09059A   26159.01609359  .00000273  00000+0  10106-3 0  9999
2 36036  98.4427 346.4855 0001339  89.7618 270.3723 14.39767788872139
YAOGAN-7                
1 36110U 09069A   26159.22013236  .00000523  00000+0  79455-4 0  9990
2 36110  98.0083  45.1422 0025962  69.3638 291.0353 14.78000881888305
TANDEM-X                
1 36605U 10030A   26158.50908804  .00001007  00000+0  51145-4 0  9997
2 36605  97.4409 166.3531 0001846  77.0433 283.1008 15.19145306885179
CARTOSAT-2B             
1 36795U 10035A   26159.27189226  .00000532  00000+0  79684-4 0  9996
2 36795  97.9953 209.8782 0010434 214.4613 145.5922 14.78650095858535
YAOGAN-10               
1 36834U 10038A   26159.32340573  .00001944  00000+0  23245-3 0  9992
2 36834  97.8983 182.7989 0001707  87.5773 329.7570 14.85324180855890
COSMO-SKYMED 4          
1 37216U 10060A   26159.26229506  .00000380  00000+0  54265-4 0  9997
2 37216  97.8890 342.9915 0001416  83.5225 276.6150 14.82161539843240
RESOURCESAT-2           
1 37387U 11015A   26159.22079397  .00000077  00000+0  55138-4 0  9997
2 37387  98.7644 226.7242 0010139 284.4978  75.5074 14.21604588784904
HAIYANG-2A              
1 37781U 11043A   26159.30306959 -.00000153  00000+0 -11572-3 0  9992
2 37781  99.3398 162.1750 0006267 108.8507 251.3322 13.74549339745430
RASAT                   
1 37791U 11044D   26159.25377868  .00000754  00000+0  13921-3 0  9990
2 37791  98.0568 250.7871 0019530 218.0367 226.6829 14.68159213791877
SRMSAT                  
1 37841U 11058D   26159.20087963  .00000378  00000+0  61376-4 0  9990
2 37841  19.9708 113.8594 0011953 105.3030 101.4235 14.11573773756543
PLEIADES 1A             
1 38012U 11076F   26159.28173402  .00000370  00000+0  89496-4 0  9998
2 38012  98.1971 234.5038 0001514  97.9861 353.2916 14.58565939770690
ZIYUAN 1-02C (ZY 1-02C) 
1 38038U 11079A   26159.31492095  .00000434  00000+0  15701-3 0  9993
2 38038  98.4068 226.8086 0006088 346.3884 102.9025 14.38207980757931
ARIRANG-3 (KOMPSAT-3)   
1 38338U 12025B   26159.27357088  .00000468  00000+0  10224-3 0  9997
2 38338  98.1173 116.8876 0006300 132.2533 227.9204 14.62198525750046
EXACTVIEW-1 (ADS-1B)    
1 38709U 12039C   26159.25318868  .00000132  00000+0  76174-4 0  9990
2 38709  98.9767 276.4421 0010678 191.8401 168.2528 14.24982036721435
SPOT 6                  
1 38755U 12047A   26159.27965044  .00000333  00000+0  81458-4 0  9990
2 38755  98.2114 226.6926 0001440  93.3362 266.8002 14.58558026731754
PLEIADES 1B             
1 39019U 12068A   26159.29855138  .00000282  00000+0  70535-4 0  9998
2 39019  98.1940 234.4725 0001580  94.7994 265.3386 14.58555216719550
GOKTURK 2               
1 39030U 12073A   26159.26507663  .00000773  00000+0  12041-3 0  9993
2 39030  97.6826 357.1438 0001916  60.7909 299.3492 14.75535049723197
LANDSAT 8               
1 39084U 13008A   26159.23495991  .00000321  00000+0  81423-4 0  9998
2 39084  98.2302 229.4763 0001460  96.1062 264.0303 14.57112838696591
SARAL                   
1 39086U 13009A   26159.24223992  .00000081  00000+0  45809-4 0  9993
2 39086  98.5558 345.9230 0001213 352.2201   7.8964 14.32853728694327
GAOFEN-1                
1 39150U 13018A   26159.04994713  .00000198  00000+0  35695-4 0  9990
2 39150  97.9091 231.3033 0015888 298.8203  61.1412 14.76526544706891
VNREDSAT 1              
1 39160U 13021B   26159.27737686  .00000722  00000+0  14362-3 0  9994
2 39160  97.9080 213.0355 0001666  89.6771 270.4624 14.64848405698989
ARIRANG-5 (KOMPSAT-5)   
1 39227U 13042A   26159.32033001  .00001639  00000+0  12123-3 0  9998
2 39227  97.6216 346.1454 0004195 142.1401 218.0121 15.04556507702524
SKYSAT-A                
1 39418U 13066C   26159.13031263  .00003431  00000+0  19740-3 0  9997
2 39418  97.3818 208.8161 0020941 350.2643   9.8179 15.12928226687113
DUBAISAT-2              
1 39419U 13066D   26159.25816057  .00004750  00000+0  29469-3 0  9997
2 39419  97.4564 149.6372 0012795  67.4770 292.7813 15.10115900685048
GPM-CORE                
1 39574U 14009C   26159.27521039  .00006325  00000+0  13639-3 0  9994
2 39574  64.9731 337.9823 0012071 270.0602  89.9155 15.45443627696439
SENTINEL-1A             
1 39634U 14016A   26159.31607152  .00000045  00000+0  19241-4 0  9994
2 39634  98.1782 166.9785 0001425  81.7738 278.3623 14.59199917648723
KAZEOSAT 1              
1 39731U 14024A   26159.27922123  .00000202  00000+0  74461-4 0  9994
2 39731  98.3200 231.9478 0001478  75.5015 284.6338 14.42076809637274
