OBJECT_NAME,OBJECT_ID,EPOCH,MEAN_MOTION,ECCENTRICITY,INCLINATION,RA_OF_ASC_NODE,ARG_OF_PERICENTER,MEAN_ANOMALY,EPHEMERIS_TYPE,CLASSIFICATION_TYPE,NORAD_CAT_ID,ELEMENT_SET_NO,REV_AT_EPOCH,BSTAR,MEAN_MOTION_DOT,MEAN_MOTION_DDOT
DUBAISAT-1,2009-041B,2026-06-08T03:14:42.137088,14.75109815,.00117421,98.0042,292.4931,99.3668,260.8869,0,U,35682,999,90376,.13413453E-3,.855E-5,0
OCEANSAT-2,2009-051A,2026-06-08T06:19:54.562080,13.99664011,.00146358,98.2330,147.0054,263.3655,96.5846,0,U,35931,999,87808,.9971438E-4,.108E-5,0
WORLDVIEW-2 (WV-2),2009-055A,2026-06-08T06:09:45.403200,14.37896848,.0003261,98.4736,232.8293,240.7189,119.3673,0,U,35946,999,87436,.53051111E-4,.117E-5,0
SMOS,2009-059A,2026-06-08T00:23:10.486176,14.39767788,.00013399,98.4427,346.4855,89.7618,270.3723,0,U,36036,999,87213,.10106165E-3,.273E-5,0
YAOGAN-7,2009-069A,2026-06-08T05:16:59.435904,14.78000881,.00259628,98.0083,45.1422,69.3638,291.0353,0,U,36110,999,88830,.79454875E-4,.523E-5,0
TANDEM-X,2010-030A,2026-06-07T12:13:05.206656,15.19145306,.00018469,97.4409,166.3531,77.0433,283.1008,0,U,36605,999,88517,.51144877E-4,.1007E-4,0
CARTOSAT-2B,2010-035A,2026-06-08T06:31:31.491264,14.78650095,.00104349,97.9953,209.8782,214.4613,145.5922,0,U,36795,999,85853,.79683509E-4,.532E-5,0
YAOGAN-10,2010-038A,2026-06-08T07:45:42.255072,14.85324180,.00017072,97.8983,182.7989,87.5773,329.7570,0,U,36834,999,85589,.23245016E-3,.1944E-4,0
COSMO-SKYMED 4,2010-060A,2026-06-08T06:17:42.293184,14.82161539,.0001416,97.8890,342.9915,83.5225,276.6150,0,U,37216,999,84324,.54264687E-4,.38E-5,0
RESOURCESAT-2,2011-015A,2026-06-08T05:17:56.599008,14.21604588,.0010139,98.7644,226.7242,284.4978,75.5074,0,U,37387,999,78490,.55138402E-4,.77E-6,0
HAIYANG-2A,2011-043A,2026-06-08T07:16:25.212576,13.74549339,.00062678,99.3398,162.1750,108.8507,251.3322,0,U,37781,999,74543,-.115715E-3,-.153E-5,0
RASAT,2011-044D,2026-06-08T06:05:26.477952,14.68159213,.00195302,98.0568,250.7871,218.0367,226.6829,0,U,37791,999,79187,.13920972E-3,.754E-5,0
SRMSAT,2011-058D,2026-06-08T04:49:16.000032,14.11573773,.00119531,19.9708,113.8594,105.3030,101.4235,0,U,37841,999,75654,.61376452E-4,.378E-5,0
PLEIADES 1A,2011-076F,2026-06-08T06:45:41.819328,14.58565939,.00015141,98.1971,234.5038,97.9861,353.2916,0,U,38012,999,77069,.89495941E-4,.37E-5,0
ZIYUAN 1-02C (ZY 1-02C),2011-079A,2026-06-08T07:33:29.170080,14.38207980,.00060885,98.4068,226.8086,346.3884,102.9025,0,U,38038,999,75793,.15700851E-3,.434E-5,0
ARIRANG-3 (KOMPSAT-3),2012-025B,2026-06-08T06:33:56.524032,14.62198525,.00063009,98.1173,116.8876,132.2533,227.9204,0,U,38338,999,75004,.10224179E-3,.468E-5,0
EXACTVIEW-1 (ADS-1B),2012-039C,2026-06-08T06:04:35.501952,14.24982036,.00106786,98.9767,276.4421,191.8401,168.2528,0,U,38709,999,72143,.76173689E-4,.132E-5,0
SPOT 6,2012-047A,2026-06-08T06:42:41.798016,14.58558026,.00014402,98.2114,226.6926,93.3362,266.8002,0,U,38755,999,73175,.8145755E-4,.333E-5,0
PLEIADES 1B,2012-068A,2026-06-08T07:09:54.839232,14.58555216,.00015809,98.1940,234.4725,94.7994,265.3386,0,U,39019,999,71955,.70534877E-4,.282E-5,0
GOKTURK 2,2012-073A,2026-06-08T06:21:42.620832,14.75535049,.00019167,97.6826,357.1438,60.7909,299.3492,0,U,39030,999,72319,.12040929E-3,.773E-5,0
LANDSAT 8,2013-008A,2026-06-08T05:38:20.536224,14.57112838,.00014604,98.2302,229.4763,96.1062,264.0303,0,U,39084,999,69659,.81422805E-4,.321E-5,0
SARAL,2013-009A,2026-06-08T05:48:49.529088,14.32853728,.00012135,98.5558,345.9230,352.2201,7.8964,0,U,39086,999,69432,.45808743E-4,.81E-6,0
GAOFEN-1,2013-018A,2026-06-08T01:11:55.432032,14.76526544,.00158883,97.9091,231.3033,298.8203,61.1412,0,U,39150,999,70689,.35694952E-4,.198E-5,0
VNREDSAT 1,2013-021B,2026-06-08T06:39:25.360704,14.64848405,.00016664,97.9080,213.0355,89.6771,270.4624,0,U,39160,999,69898,.14362471E-3,.722E-5,0
ARIRANG-5 (KOMPSAT-5),2013-042A,2026-06-08T07:41:16.512864,15.04556507,.00041953,97.6216,346.1454,142.1401,218.0121,0,U,39227,999,70252,.12122994E-3,.1639E-4,0
SKYSAT-A,2013-066C,2026-06-08T03:07:39.011232,15.12928226,.00209412,97.3818,208.8161,350.2643,9.8179,0,U,39418,999,68711,.19739938E-3,.3431E-4,0
DUBAISAT-2,2013-066D,2026-06-08T06:11:45.073248,15.10115900,.00127957,97.4564,149.6372,67.4770,292.7813,0,U,39419,999,68504,.29468776E-3,.475E-4,0
GPM-CORE,2014-009C,2026-06-08T06:36:18.177696,15.45443627,.00120711,64.9731,337.9823,270.0602,89.9155,0,U,39574,999,69643,.13638557E-3,.6325E-4,0
SENTINEL-1A,2014-016A,2026-06-08T07:35:08.579328,14.59199917,.0001425,98.1782,166.9785,81.7738,278.3623,0,U,39634,999,64872,.19241062E-4,.45E-6,0
KAZEOSAT 1,2014-024A,2026-06-08T06:42:04.714272,14.42076809,.00014788,98.3200,231.9478,75.5015,284.6338,0,U,39731,999,63727,.74460792E-4,.202E-5,0
